#aV2015 12  2  0  0  0.00000000     288 DD+AD WGS84 FIT  NGA
## 1873 259200.00000000   300.00000000 57358 0.0000000000000
+   31     1  2  3  5  6  7  8  9 10 11 12 13 14 15 16 17 18
+         19 20 21 22 23 24 25 26 27 28 29 30 31 32  0  0  0
+          0  0  0  0  0  0  0  0  0  0  0  0  0  0  0  0  0
+          0  0  0  0  0  0  0  0  0  0  0  0  0  0  0  0  0
+          0  0  0  0  0  0  0  0  0  0  0  0  0  0  0  0  0
++         2  2  2  2  2  2  2  2  2  2  2  2  2  2  2  2  2
++         2  2  2  2  2  2  2  2  2  2  2  2  2  2  0  0  0
++         0  0  0  0  0  0  0  0  0  0  0  0  0  0  0  0  0
++         0  0  0  0  0  0  0  0  0  0  0  0  0  0  0  0  0
++         0  0  0  0  0  0  0  0  0  0  0  0  0  0  0  0  0
%c cc cc ccc ccc cccc cccc cccc cccc ccccc ccccc ccccc ccccc
%c cc cc ccc ccc cccc cccc cccc cccc ccccc ccccc ccccc ccccc
%f  0.0000000  0.000000000  0.00000000000  0.000000000000000
%f  0.0000000  0.000000000  0.00000000000  0.000000000000000
%i    0    0    0    0      0      0      0      0         0
%i    0    0    0    0      0      0      0      0         0
/*      NGA, ST. LOUIS,MO.                                  
/*   EPHEMERIS COMPUTED FROM 2 DAYS OF DATA                 
/*   EPOCHA v2.4 SMOOTHER                                   
/*   G1762 IERS2010 SATAF SATAPC                            
*  2015 12  2  0 30  0.00000000
P  1 -21613.171929 -11864.369845  10070.246826      5.693522                    
V  1  -7393.400223 -10729.136697 -28095.052146      0.008517                    
P  2  11517.988712  21679.078975  11063.755692    597.074452                    
V  2 -11493.823340  -7240.750741  26705.315785      0.007765                    
P  3 -14339.102803  -5346.643099  21706.941767      7.659995                    
V  3   7264.313674 -26597.091071  -1771.104053     -0.044688                    
P  5   4073.273120  22594.485331 -13253.360971   -169.149719                    
V  5  -6805.515651  15628.045583  24871.536753      0.037355                    
P  6   -594.628118  18284.343449  19257.455027    104.956747                    
V  6 -18257.531052 -16307.082614  14908.511519      0.065646                    
P  7 -17218.151481   1996.276181 -20104.172752    478.708891                    
V  7 -17135.718507 -19148.558649  12313.841186     -0.011472                    
P  8 -18242.361712  -7739.556361 -17631.028088    -14.604002                    
V  8  21246.160641  -7559.817697 -18613.021357     -0.014161                    
P  9 -25201.206016   8226.352428  -1739.861525     20.131735                    
V  9  -2898.182640  -2252.994281  31549.085701      0.071460                    
P 10  12164.150544 -22038.659595  -8810.696887     34.578237                    
V 10   -370.198204  11371.545403 -28976.316249      0.096872                    
P 11 -24351.253159 -10648.175139    447.711885   -619.365028                    
V 11    894.049171  -4883.985934 -30180.229079     -0.021100                    
P 12  12313.401447   8544.218426  21843.870294    349.970593                    
V 12  -8720.272737  26485.503476  -5211.197917      0.030390                    
P 13   9190.512686  13225.343289 -21236.519899   -168.368945                    
V 13 -26230.759701   4679.428036  -8586.120951     -0.027372                    
P 14  15890.856677 -14250.075953  15962.888310     18.108967                    
V 14  19858.121103  -1873.640369 -21929.026917     -0.023965                    
P 15  20634.390129   5745.830614 -16028.280597   -285.040095                    
V 15 -18403.703372   8382.885146 -20488.868584     -0.019405                    
P 16  -1609.156377 -22675.104646 -13494.084082    -61.257395                    
V 16   7144.576721 -15627.843737  25921.296354      0.035289                    
P 17 -15795.945129  14508.670703  15840.472221   -195.494807                    
V 17 -19499.617526   2586.594416 -22461.717374     -0.009928                    
P 18  15269.861695 -14923.168254 -15114.002617    458.508198                    
V 18  -1723.077977  20479.351372 -21526.671242      0.038331                    
P 19 -24746.938128   8295.334481   5875.981106   -523.317598                    
V 19  -7879.843190   -729.321128 -30553.120436     -0.003685                    
P 20  14522.972700   7984.596724 -20905.975389    375.228889                    
V 20  -5528.910145  25757.537609   6112.740613      0.028319                    
P 21  15088.217223  -6286.136334 -20271.086274   -496.964057                    
V 21  19248.331908  19553.769398   7679.475240     -0.023172                    
P 22   9143.478296 -24427.633996  -4244.740137    415.799833                    
V 22   2677.046386   6538.681036 -30362.001958      0.035343                    
P 23 -24803.064688   -938.381532  10206.299289   -147.478592                    
V 23  11519.481215  -5667.622980  27507.627730     -0.020209                    
P 24  21724.784702  13558.194550   7344.900301     -8.699558                    
V 24   4813.909725   8481.929200 -29569.166735     -0.004916                    
P 25  15798.114062  -6451.754697  20204.091451    -76.206594                    
V 25  -5724.704391  25256.534216  12648.390518     -0.059436                    
P 26   4292.572729 -25972.601232  -3439.846911   -146.503871                    
V 26   3828.988598  -3524.609179  31362.045268     -0.166009                    
P 27  -7394.692973 -13423.239922 -21728.315360     40.705224                    
V 27  26442.080156  -7526.729047  -4225.927526      0.032648                    
P 28 -12172.782023  22530.937951  -6262.264536    485.350695                    
V 28    986.932315  -8957.258322 -31091.908912      0.026291                    
P 29  26070.120003  -4893.699183    908.012117    646.698647                    
V 29   -616.866420   2559.066344  32078.665491      0.014838                    
P 30  -9376.383437  12445.348813 -21502.387948     65.073136                    
V 30 -18252.106018 -20352.226530  -3899.386259      0.053901                    
P 31      9.310017 -18709.475115  18833.793394    292.988832                    
V 31  17289.264732  16340.783276  16676.011761     -0.015749                    
P 32  -7924.783141 -17512.476651  18478.570788     34.668946                    
V 32   9154.765396 -21651.646064 -15997.492711      0.119479                    
EOF
